ALSAT 1                 
1 27559U 02054A   08219.78952304  .00000013  00000-0  11502-4 0  4854
2 27559  97.9882  99.0223 0010738 353.8246   6.2825 14.62973572303722
NIGERIASAT 1            
1 27941U 03042C   08219.80659506 -.00000045  00000-0  10099-6 0  5790
2 27941  97.9887  99.3222 0012504  52.4647 307.7683 14.62962710259570
UK-DMC                  
1 27942U 03042D   08219.77200401  .00000004  00000-0  97353-5 0  5671
2 27942  97.9869  99.0810 0012336  59.9991 300.2437 14.62973625259569
BILSAT 1                
1 27943U 03042E   08219.86866527 -.00000004  00000-0  81587-5 0  4064
2 27943  97.9873  99.0357 0012777  49.2887 310.9424 14.62878957259573
BEIJING 1               
1 28890U 05043A   08219.86588751 -.00000010  00000-0  75238-5 0  2891
2 28890  98.0864 112.7507 0014298 248.9599 111.0070 14.60034504148041
